[{"OBJECT_NAME":"OBJECT C","OBJECT_ID":"2025-226C","EPOCH":"2026-03-09T22:35:45.758112","MEAN_MOTION":15.1432456,"ECCENTRICITY":0.00153316,"INCLINATION":97.6396,"RA_OF_ASC_NODE":148.5375,"ARG_OF_PERICENTER":120.7219,"MEAN_ANOMALY":239.5525,"EPHEMERIS_TYPE":0,"CLASSIFICATION_TYPE":"U","NORAD_CAT_ID":65940,"ELEMENT_SET_NO":999,"REV_AT_EPOCH":2265,"BSTAR":0.00059133816,"MEAN_MOTION_DOT":0.00010804,"MEAN_MOTION_DDOT":0},{"OBJECT_NAME":"SL-14 R\/B","OBJECT_ID":"2009-003B","EPOCH":"2026-03-09T22:56:16.948608","MEAN_MOTION":15.18255832,"ECCENTRICITY":0.00217716,"INCLINATION":82.3842,"RA_OF_ASC_NODE":305.4853,"ARG_OF_PERICENTER":18.7466,"MEAN_ANOMALY":341.4564,"EPHEMERIS_TYPE":0,"CLASSIFICATION_TYPE":"U","NORAD_CAT_ID":33505,"ELEMENT_SET_NO":999,"REV_AT_EPOCH":94237,"BSTAR":9.9679257e-5,"MEAN_MOTION_DOT":2.085e-5,"MEAN_MOTION_DDOT":0}]
